FLOCK 4H-29             
1 66732U 25276BU  26115.93489774  .00007222  00000+0  34698-3 0  9997
2 66732  97.4187 190.2601 0003346 177.6858 182.4393 15.19124860 22482
FLOCK 4H-30             
1 66733U 25276BV  26115.73480431  .00006303  00000+0  30258-3 0  9994
2 66733  97.4250 190.1933 0004566 173.0651 187.0647 15.19199098 22452
FLOCK 4H-31             
1 66734U 25276BW  26115.74512214  .00006422  00000+0  30984-3 0  9999
2 66734  97.4184 190.0541 0003847 177.6054 182.5200 15.19022509 22458
FLOCK 4H-32             
1 66735U 25276BX  26115.73911547  .00006387  00000+0  30726-3 0  9995
2 66735  97.4240 190.1720 0005007 171.6508 188.4810 15.19122951 22454
FLOCK 4H-33             
1 66736U 25276BY  26115.75883227  .00006224  00000+0  28932-3 0  9997
2 66736  97.4237 190.4462 0003809 112.2404 247.9236 15.20326214 22476
FLOCK 4H-34             
1 66737U 25276BZ  26115.85521849  .00006758  00000+0  31821-3 0  9991
2 66737  97.4252 190.4985 0003966 117.6799 242.4839 15.19849292 21735
FLOCK 4H-35             
1 66738U 25276CA  26115.77407914  .00006336  00000+0  29655-3 0  9993
2 66738  97.4213 190.3787 0003523 108.0217 252.1402 15.20082766 21764
FLOCK 4H-36             
1 66739U 25276CB  26115.93147313  .00006722  00000+0  31686-3 0  9992
2 66739  97.4260 190.5671 0004003 125.9540 234.2067 15.19813174 22494
